{"type": "FeatureCollection", "features": [ {"type": "Feature", "properties": {"norad_id": 42987, "name": "SKYSAT-C11", "group": "resource", "lat": 81.86429425766349, "lon": 16.579308625597683, "alt_km": 415.1838785328955, "timestamp": "2025-12-19T06:59:43.561597+00:00", "meta": {"OBJECT_NAME": "SKYSAT-C11", "OBJECT_ID": "2017-068A", "EPOCH": "2025-12-18T22:50:06.811872", "MEAN_MOTION": 15.47702114, "ECCENTRICITY": 0.00011532, "INCLINATION": 97.4142, "RA_OF_ASC_NODE": 130.598, "ARG_OF_PERICENTER": 99.6739, "MEAN_ANOMALY": 260.4642, "EPHEMERIS_TYPE": 0, "CLASSIFICATION_TYPE": "U", "NORAD_CAT_ID": 42987, "ELEMENT_SET_NO": 999, "REV_AT_EPOCH": 45527, "BSTAR": 0.00036065159, "MEAN_MOTION_DOT": 0.00018579, "MEAN_MOTION_DDOT": 0}, "tle": {"line1": "1 42987U 17068A   25352.95146773  .00018579  00000+0  36065-3 0  9993", "line2": "2 42987  97.4142 130.5980 0001153  99.6739 260.4642 15.47702114455277"}}, "geometry": {"type": "Point", "coordinates": [16.579308625597683, 81.86429425766349]}}, {"type": "Feature", "properties": {"norad_id": 42988, "name": "SKYSAT-C10", "group": "resource", "lat": 9.825634523839303, "lon": -54.544900505249984, "alt_km": 470.65442814635935, "timestamp": "2025-12-19T06:59:43.561608+00:00", "meta": {"OBJECT_NAME": "SKYSAT-C10", "OBJECT_ID": "2017-068B", "EPOCH": "2025-12-18T22:25:10.285248", "MEAN_MOTION": 15.32190604, "ECCENTRICITY": 0.00054557, "INCLINATION": 97.426, "RA_OF_ASC_NODE": 123.8024, "ARG_OF_PERICENTER": 86.4338, "MEAN_ANOMALY": 273.7528, "EPHEMERIS_TYPE": 0, "CLASSIFICATION_TYPE": "U", "NORAD_CAT_ID": 42988, "ELEMENT_SET_NO": 999, "REV_AT_EPOCH": 45474, "BSTAR": 0.00029573083, "MEAN_MOTION_DOT": 9.118e-05, "MEAN_MOTION_DDOT": 0}, "tle": {"line1": "1 42988U 17068B   25352.93414682  .00009118  00000+0  29573-3 0  9994", "line2": "2 42988  97.4260 123.8024 0005455  86.4338 273.7528 15.32190604454741"}}, "geometry": {"type": "Point", "coordinates": [-54.544900505249984, 9.825634523839303]}}, {"type": "Feature", "properties": {"norad_id": 42989, "name": "SKYSAT-C9", "group": "resource", "lat": 67.01533571490859, "lon": -38.51064382378452, "alt_km": 445.73115218570365, "timestamp": "2025-12-19T06:59:43.561618+00:00", "meta": {"OBJECT_NAME": "SKYSAT-C9", "OBJECT_ID": "2017-068C", "EPOCH": "2025-12-18T22:41:41.803008", "MEAN_MOTION": 15.36203039, "ECCENTRICITY": 0.0010548, "INCLINATION": 97.4193, "RA_OF_ASC_NODE": 123.2487, "ARG_OF_PERICENTER": 67.9248, "MEAN_ANOMALY": 292.3115, "EPHEMERIS_TYPE": 0, "CLASSIFICATION_TYPE": "U", "NORAD_CAT_ID": 42989, "ELEMENT_SET_NO": 999, "REV_AT_EPOCH": 45503, "BSTAR": 0.00029759929, "MEAN_MOTION_DOT": 0.00010438, "MEAN_MOTION_DDOT": 0}, "tle": {"line1": "1 42989U 17068C   25352.94562272  .00010438  00000+0  29760-3 0  9990", "line2": "2 42989  97.4193 123.2487 0010548  67.9248 292.3115 15.36203039455030"}}, "geometry": {"type": "Point", "coordinates": [-38.51064382378452, 67.01533571490859]}}, {"type": "Feature", "properties": {"norad_id": 42990, "name": "SKYSAT-C8", "group": "resource", "lat": 8.35929170430363, "lon": 122.22181963036061, "alt_km": 468.167995439102, "timestamp": "2025-12-19T06:59:43.561628+00:00", "meta": {"OBJECT_NAME": "SKYSAT-C8", "OBJECT_ID": "2017-068D", "EPOCH": "2025-12-18T19:59:35.453472", "MEAN_MOTION": 15.33051371, "ECCENTRICITY": 0.00011703, "INCLINATION": 97.4282, "RA_OF_ASC_NODE": 122.8599, "ARG_OF_PERICENTER": 316.3061, "MEAN_ANOMALY": 43.8088, "EPHEMERIS_TYPE": 0, "CLASSIFICATION_TYPE": "U", "NORAD_CAT_ID": 42990, "ELEMENT_SET_NO": 999, "REV_AT_EPOCH": 45464, "BSTAR": 0.00030081895, "MEAN_MOTION_DOT": 9.527e-05, "MEAN_MOTION_DDOT": 0}, "tle": {"line1": "1 42990U 17068D   25352.83304923  .00009527  00000+0  30082-3 0  9993", "line2": "2 42990  97.4282 122.8599 0001170 316.3061  43.8088 15.33051371454646"}}, "geometry": {"type": "Point", "coordinates": [122.22181963036061, 8.35929170430363]}}, {"type": "Feature", "properties": {"norad_id": 42991, "name": "SKYSAT-C7", "group": "resource", "lat": -29.746362210291487, "lon": -59.920208355677815, "alt_km": 479.42473201907615, "timestamp": "2025-12-19T06:59:43.561638+00:00", "meta": {"OBJECT_NAME": "SKYSAT-C7", "OBJECT_ID": "2017-068E", "EPOCH": "2025-12-18T22:14:48.659712", "MEAN_MOTION": 15.32453251, "ECCENTRICITY": 0.00072381, "INCLINATION": 97.429, "RA_OF_ASC_NODE": 123.9903, "ARG_OF_PERICENTER": 38.2093, "MEAN_ANOMALY": 321.9661, "EPHEMERIS_TYPE": 0, "CLASSIFICATION_TYPE": "U", "NORAD_CAT_ID": 42991, "ELEMENT_SET_NO": 999, "REV_AT_EPOCH": 45472, "BSTAR": 0.00029204968, "MEAN_MOTION_DOT": 9.081e-05, "MEAN_MOTION_DDOT": 0}, "tle": {"line1": "1 42991U 17068E   25352.92695208  .00009081  00000+0  29205-3 0  9993", "line2": "2 42991  97.4290 123.9903 0007238  38.2093 321.9661 15.32453251454721"}}, "geometry": {"type": "Point", "coordinates": [-59.920208355677815, -29.746362210291487]}}, {"type": "Feature", "properties": {"norad_id": 42992, "name": "SKYSAT-C6", "group": "resource", "lat": -52.436344293804474, "lon": 134.56184834354326, "alt_km": 479.59348511303233, "timestamp": "2025-12-19T06:59:43.561649+00:00", "meta": {"OBJECT_NAME": "SKYSAT-C6", "OBJECT_ID": "2017-068F", "EPOCH": "2025-12-18T20:15:03.221856", "MEAN_MOTION": 15.31610998, "ECCENTRICITY": 0.00050359, "INCLINATION": 97.4323, "RA_OF_ASC_NODE": 124.3405, "ARG_OF_PERICENTER": 66.0941, "MEAN_ANOMALY": 294.0827, "EPHEMERIS_TYPE": 0, "CLASSIFICATION_TYPE": "U", "NORAD_CAT_ID": 42992, "ELEMENT_SET_NO": 999, "REV_AT_EPOCH": 45469, "BSTAR": 0.00029301506, "MEAN_MOTION_DOT": 8.87e-05, "MEAN_MOTION_DDOT": 0}, "tle": {"line1": "1 42992U 17068F   25352.84378729  .00008870  00000+0  29302-3 0  9994", "line2": "2 42992  97.4323 124.3405 0005035  66.0941 294.0827 15.31610998454697"}}, "geometry": {"type": "Point", "coordinates": [134.56184834354326, -52.436344293804474]}}, {"type": "Feature", "properties": {"norad_id": 43111, "name": "CARTOSAT-2F", "group": "resource", "lat": 54.69645856345417, "lon": -118.55392612269873, "alt_km": 502.2056821931492, "timestamp": "2025-12-19T06:59:43.561659+00:00", "meta": {"OBJECT_NAME": "CARTOSAT-2F", "OBJECT_ID": "2018-004A", "EPOCH": "2025-12-18T22:32:42.501120", "MEAN_MOTION": 15.19181307, "ECCENTRICITY": 0.00014533, "INCLINATION": 97.4318, "RA_OF_ASC_NODE": 50.4774, "ARG_OF_PERICENTER": 108.2065, "MEAN_ANOMALY": 251.9328, "EPHEMERIS_TYPE": 0, "CLASSIFICATION_TYPE": "U", "NORAD_CAT_ID": 43111, "ELEMENT_SET_NO": 999, "REV_AT_EPOCH": 43996, "BSTAR": 0.00022724061, "MEAN_MOTION_DOT": 4.712e-05, "MEAN_MOTION_DDOT": 0}, "tle": {"line1": "1 43111U 18004A   25352.93938080  .00004712  00000+0  22724-3 0  9993", "line2": "2 43111  97.4318  50.4774 0001453 108.2065 251.9328 15.19181307439963"}}, "geometry": {"type": "Point", "coordinates": [-118.55392612269873, 54.69645856345417]}}, {"type": "Feature", "properties": {"norad_id": 43259, "name": "GAOFEN-1 02", "group": "resource", "lat": -37.91481621932829, "lon": 57.436705449704355, "alt_km": 648.001233087014, "timestamp": "2025-12-19T06:59:43.561669+00:00", "meta": {"OBJECT_NAME": "GAOFEN-1 02", "OBJECT_ID": "2018-031A", "EPOCH": "2025-12-18T23:02:10.621824", "MEAN_MOTION": 14.76428147, "ECCENTRICITY": 0.00021263, "INCLINATION": 98.0805, "RA_OF_ASC_NODE": 50.7518, "ARG_OF_PERICENTER": 193.0384, "MEAN_ANOMALY": 167.0771, "EPHEMERIS_TYPE": 0, "CLASSIFICATION_TYPE": "U", "NORAD_CAT_ID": 43259, "ELEMENT_SET_NO": 999, "REV_AT_EPOCH": 41610, "BSTAR": 0.00012018885, "MEAN_MOTION_DOT": 7.84e-06, "MEAN_MOTION_DDOT": 0}, "tle": {"line1": "1 43259U 18031A   25352.95984516  .00000784  00000+0  12019-3 0  9994", "line2": "2 43259  98.0805  50.7518 0002126 193.0384 167.0771 14.76428147416105"}}, "geometry": {"type": "Point", "coordinates": [57.436705449704355, -37.91481621932829]}}, {"type": "Feature", "properties": {"norad_id": 43260, "name": "GAOFEN-1 03", "group": "resource", "lat": 75.05502378559679, "lon": 18.807756286113076, "alt_km": 634.4461520087871, "timestamp": "2025-12-19T06:59:43.561679+00:00", "meta": {"OBJECT_NAME": "GAOFEN-1 03", "OBJECT_ID": "2018-031B", "EPOCH": "2025-12-18T22:30:49.216032", "MEAN_MOTION": 14.76449246, "ECCENTRICITY": 0.00017323, "INCLINATION": 98.0791, "RA_OF_ASC_NODE": 50.6058, "ARG_OF_PERICENTER": 290.2219, "MEAN_ANOMALY": 69.8804, "EPHEMERIS_TYPE": 0, "CLASSIFICATION_TYPE": "U", "NORAD_CAT_ID": 43260, "ELEMENT_SET_NO": 999, "REV_AT_EPOCH": 41609, "BSTAR": 0.00010947653, "MEAN_MOTION_DOT": 7.1e-06, "MEAN_MOTION_DDOT": 0}, "tle": {"line1": "1 43260U 18031B   25352.93806963  .00000710  00000+0  10948-3 0  9991", "line2": "2 43260  98.0791  50.6058 0001732 290.2219  69.8804 14.76449246416095"}}, "geometry": {"type": "Point", "coordinates": [18.807756286113076, 75.05502378559679]}}, {"type": "Feature", "properties": {"norad_id": 43262, "name": "GAOFEN-1 04", "group": "resource", "lat": -26.868422229076135, "lon": -132.99807292045205, "alt_km": 646.8109112319926, "timestamp": "2025-12-19T06:59:43.561689+00:00", "meta": {"OBJECT_NAME": "GAOFEN-1 04", "OBJECT_ID": "2018-031D", "EPOCH": "2025-12-19T02:48:26.925984", "MEAN_MOTION": 14.76418955, "ECCENTRICITY": 6.75e-05, "INCLINATION": 98.08, "RA_OF_ASC_NODE": 50.9547, "ARG_OF_PERICENTER": 58.2218, "MEAN_ANOMALY": 301.9057, "EPHEMERIS_TYPE": 0, "CLASSIFICATION_TYPE": "U", "NORAD_CAT_ID": 43262, "ELEMENT_SET_NO": 999, "REV_AT_EPOCH": 41611, "BSTAR": 0.00010993, "MEAN_MOTION_DOT": 7.12e-06, "MEAN_MOTION_DDOT": 0}, "tle": {"line1": "1 43262U 18031D   25353.11697831  .00000712  00000+0  10993-3 0  9998", "line2": "2 43262  98.0800  50.9547 0000675  58.2218 301.9057 14.76418955416116"}}, "geometry": {"type": "Point", "coordinates": [-132.99807292045205, -26.868422229076135]}}]}